{"fetched_at":"2026-06-08T18:26:03Z","count":4361,"tles":[{"name":"SL-16 R/B","line1":"1 25407U 98045B   26158.91242733  .00000053  00000+0  50740-4 0  9994","line2":"2 25407  71.0121 351.8354 0009531 252.8605 107.1475 14.16204706439874","category":"Other"},{"name":"ARIANE 5 R/B","line1":"1 28499U 04049H   26159.03660323  .00000859  00000+0  10040-3 0  9994","line2":"2 28499  98.2717 330.9368 0085011  58.7859 302.1651 14.85436761159207","category":"Other"},{"name":"CZ-4B R/B","line1":"1 27432U 02024C   26159.18819502  .00000042  00000+0  44191-4 0  9991","line2":"2 27432  98.8703 212.0664 0051047 125.2893 304.1771 14.14563013242035","category":"Other"},{"name":"ALOS (DAICHI)","line1":"1 28931U 06002A   26159.10579475  .00001209  00000+0  20978-3 0  9992","line2":"2 28931  98.1320 114.7019 0001790  61.5359 298.6026 14.70032827 86761","category":"Other"},{"name":"H-2A R/B","line1":"1 28932U 06002B   26159.02390669  .00006995  00000+0  33761-3 0  9991","line2":"2 28932  98.2560 314.0260 0049670 294.3106  65.2943 15.17950869108136","category":"Other"},{"name":"CZ-2C R/B","line1":"1 31114U 07010B   26158.90162102  .00000109  00000+0  69018-4 0  9998","line2":"2 31114  98.4091 267.7072 0059564  32.9885 327.4986 14.20274155992525","category":"Other"},{"name":"H-2A R/B","line1":"1 27601U 02056E   26158.79991875  .00000230  00000+0  95250-4 0  9995","line2":"2 27601  98.3308 115.8169 0068882 252.9615 166.0380 14.33818201227020","category":"Other"},{"name":"SL-16 R/B","line1":"1 25861U 99039B   26159.11829679  .00000546  00000+0  75805-4 0  9991","line2":"2 25861  97.9842 218.0069 0014005 328.6619  31.3757 14.81836763450253","category":"Other"},{"name":"CZ-4B R/B","line1":"1 25732U 99025C   26159.03701402  .00000053  00000+0  46286-4 0  9991","line2":"2 25732  98.6487 201.1055 0038244  85.1972 333.7855 14.18281952400975","category":"Other"},{"name":"RESURS-DK 1","line1":"1 29228U 06021A   26158.97910051  .00002799  00000+0  16340-3 0  9999","line2":"2 29228  69.9339   3.3886 0006437 299.3252  60.7270 15.13177297101180","category":"Other"},{"name":"CZ-2D R/B","line1":"1 28738U 05024B   26159.03577072  .00058556  00000+0  51563-3 0  9994","line2":"2 28738  97.3499 178.0132 0004794  73.1197 287.0590 15.68567062153900","category":"Other"},{"name":"CZ-4B R/B","line1":"1 29507U 06046C   26159.02283543  .00004603  00000+0  22885-3 0  9999","line2":"2 29507  97.5454 203.6582 0031417 316.1729  43.7012 15.17717799 73742","category":"Other"},{"name":"CZ-2C R/B","line1":"1 28480U 04046B   26158.72573507  .00000101  00000+0  53237-4 0  9999","line2":"2 28480  98.1950  68.0972 0138136 248.4529 110.1883 14.27024678121348","category":"Other"},{"name":"CZ-4B R/B","line1":"1 28415U 04035C   26159.04514323  .00008961  00000+0  30203-3 0  9991","line2":"2 28415  97.3374 192.2224 0031056  10.9178 349.2730 15.30493100193724","category":"Other"},{"name":"SL-16 R/B","line1":"1 28353U 04021B   26159.11015513 -.00000214  00000+0 -86694-4 0  9993","line2":"2 28353  71.0021  42.7392 0007495 265.8006  94.2259 14.14612296135627","category":"Other"},{"name":"MIDORI II (ADEOS-II)","line1":"1 27597U 02056A   26159.17784781  .00000279  00000+0  12746-3 0  9999","line2":"2 27597  98.7874 118.3613 0002226  89.4129 270.7307 14.29344793223226","category":"Other"},{"name":"ISS (ZARYA)","line1":"1 25544U 98067A   26158.90128687  .00007994  00000+0  14961-3 0  9995","line2":"2 25544  51.6338 346.0598 0006926 145.2709 214.8733 15.49660544570312","category":"ISS"},{"name":"AQUA","line1":"1 27424U 02022A   26159.22552237  .00000844  00000+0  17767-3 0  9992","line2":"2 27424  98.4273 128.3297 0001460  54.6909   2.1780 14.62144733281969","category":"Other"},{"name":"TERRA","line1":"1 25994U 99068A   26159.18941899  .00000394  00000+0  89149-4 0  9993","line2":"2 25994  97.9459 209.0921 0000938 232.9504 220.4761 14.61096061408291","category":"Other"},{"name":"ENVISAT","line1":"1 27386U 02009A   26158.79335659  .00000110  00000+0  49598-4 0  9996","line2":"2 27386  98.3830 110.3215 0001340  91.0170 331.4929 14.39062705272131","category":"Other"},{"name":"HELIOS 1B","line1":"1 25977U 99064A   26158.96600262  .00001675  00000+0  18896-3 0  9994","line2":"2 25977  98.1622  63.8387 0002332 104.8535 255.2939 14.87983381698685","category":"Other"}]}